{"fetched_at":"2026-03-29T16:36:15Z","count":15609,"tles":[{"name":"STARLINK-5127","line1":"1 54010U 22125AY  26087.79685898  .00004502  00000+0  30076-3 0  9994","line2":"2 54010  53.2153 117.9190 0001348  98.6003 261.5142 15.08841787192496","category":"Starlink"}]}